[{"OBJECT_NAME":"OBJECT B","OBJECT_ID":"2024-205B","EPOCH":"2026-03-09T23:46:05.115936","MEAN_MOTION":15.28158697,"ECCENTRICITY":0.00105957,"INCLINATION":97.4192,"RA_OF_ASC_NODE":146.9311,"ARG_OF_PERICENTER":34.0947,"MEAN_ANOMALY":326.0972,"EPHEMERIS_TYPE":0,"CLASSIFICATION_TYPE":"U","NORAD_CAT_ID":61895,"ELEMENT_SET_NO":999,"REV_AT_EPOCH":7352,"BSTAR":0.00054154807,"MEAN_MOTION_DOT":0.00014827,"MEAN_MOTION_DDOT":0},{"OBJECT_NAME":"STARLINK-32612","OBJECT_ID":"2024-210P","EPOCH":"2026-03-09T08:12:59.251680","MEAN_MOTION":15.27601895,"ECCENTRICITY":0.00030436,"INCLINATION":43.0011,"RA_OF_ASC_NODE":182.0561,"ARG_OF_PERICENTER":285.6662,"MEAN_ANOMALY":74.3854,"EPHEMERIS_TYPE":0,"CLASSIFICATION_TYPE":"U","NORAD_CAT_ID":61972,"ELEMENT_SET_NO":999,"REV_AT_EPOCH":7482,"BSTAR":0.0012230411,"MEAN_MOTION_DOT":0.00033572,"MEAN_MOTION_DDOT":0}]
